GORIZONT 10             
1 15144U 84078A   26095.71453560  .00000117  00000+0  00000+0 0  9992
2 15144   9.0219 313.8489 0003602 344.0282 359.6208  1.00208820153843
HIMAWARI-3 (GMS-3)      
1 15152U 84080A   26094.95423808 -.00000278  00000+0  00000+0 0  9990
2 15152  10.7383 324.1382 0004784 124.7703  55.5149  0.99838754151917
SL-12 R/B(2)            
1 15181U 84078F   26095.56966425 -.00000337  00000+0  00000+0 0  9990
2 15181   9.1063 314.2148 0020741 212.4593 334.3482  1.00336478122284
AMPTE/CCE               
1 15199U 84088A   26095.83688346 -.00000232  00000+0  00000+0 0  9997
2 15199   3.5403 268.5852 7640352  75.1619   6.0360  1.53321109199328
DELTA 1 R/B(2)          
1 15206U 84088F   26091.93307906  .00000628  00000+0  48346-2 0  9999
2 15206  26.4644 130.7267 7804805 265.7869  11.7443  1.58896026237268
USA 4                   
1 15226U 84091A   26094.35963791 -.00000667  00000+0  00000+0 0  9990
2 15226  63.0611  92.6452 6546673 282.8149  15.9254  2.00760699 49237
TELSTAR 302             
1 15237U 84093D   26095.62396710 -.00000291  00000+0  00000+0 0  9999
2 15237  14.1714 345.9038 0000770 171.1333  10.5661  0.99777754 45714
COSMOS 1596             
1 15267U 84096A   26093.26505123  .00000951  00000+0  00000+0 0  9995
2 15267  65.8914 138.0118 6693433  25.5149 356.3624  2.00767608304505
GALAXY 3 (G-3)          
1 15308U 84101A   26095.45684934 -.00000246  00000+0  00000+0 0  9997
2 15308  14.1396 345.6477 0006901  25.6670 142.8297  0.99848564 45758
SL-6 R/B(2)             
1 15355U 84107D   26095.04824712 -.00001118  00000+0  00000+0 0  9999
2 15355  62.9912 122.9984 7268658  43.4849 355.0184  2.03368333308210
ZHONGXING-5R            
1 15385U 84114A   26095.02807838 -.00000232  00000+0  00000+0 0  9994
2 15385  14.6796 352.5776 0009437  76.1740 115.7999  0.99765147126244
ATLAS AGENA R/B(2)      
1 15422U 77038C   26095.22446320 -.00000246  00000+0  00000+0 0  9995
2 15422   6.3918 330.2745 1450048 179.1762 180.8122  1.02338083 25492
MOLNIYA 1-63            
1 15429U 84124A   26087.65179846 -.00001429  00000+0  00000+0 0  9994
2 15429  63.1160   1.5556 7286659 257.4882 339.2736  2.00465046302444
SL-6 R/B(2)             
1 15439U 84124H   26089.76740554  .00000491  00000+0  25391-3 0  9990
2 15439  62.9342   7.1459 7466162 257.1113  17.8610  1.96360758253185
GORIZONT 11             
1 15484U 85007A   26094.95623142 -.00000189  00000+0  00000+0 0  9992
2 15484   9.2906 316.0145 0002918 293.6812 265.8131  1.00248785151896
USA 8                   
1 15543U 85010B   26094.95738994 -.00000322  00000+0  00000+0 0  9993
2 15543  12.7915 314.2326 0135082  52.4412 142.4749  0.99820113  7093
IUS R/B(2)              
1 15545U 85010D   26095.15102419 -.00000125  00000+0  00000+0 0  9996
2 15545  12.8977 313.0479 0029014 303.9466  55.7006  1.00823057 26186
