[{"OBJECT_NAME":"GORIZONT 10","OBJECT_ID":"1984-078A","EPOCH":"2026-04-05T17:08:55.875840","MEAN_MOTION":1.0020882,"ECCENTRICITY":0.0003602,"INCLINATION":9.0219,"RA_OF_ASC_NODE":313.8489,"ARG_OF_PERICENTER":344.0282,"MEAN_ANOMALY":359.6208,"EPHEMERIS_TYPE":0,"CLASSIFICATION_TYPE":"U","NORAD_CAT_ID":15144,"ELEMENT_SET_NO":999,"REV_AT_EPOCH":15384,"BSTAR":0,"MEAN_MOTION_DOT":1.17e-6,"MEAN_MOTION_DDOT":0},{"OBJECT_NAME":"HIMAWARI-3 (GMS-3)","OBJECT_ID":"1984-080A","EPOCH":"2026-04-04T22:54:06.170112","MEAN_MOTION":0.99838754,"ECCENTRICITY":0.00047844,"INCLINATION":10.7383,"RA_OF_ASC_NODE":324.1382,"ARG_OF_PERICENTER":124.7703,"MEAN_ANOMALY":55.5149,"EPHEMERIS_TYPE":0,"CLASSIFICATION_TYPE":"U","NORAD_CAT_ID":15152,"ELEMENT_SET_NO":999,"REV_AT_EPOCH":15191,"BSTAR":0,"MEAN_MOTION_DOT":-2.78e-6,"MEAN_MOTION_DDOT":0},{"OBJECT_NAME":"SL-12 R/B(2)","OBJECT_ID":"1984-078F","EPOCH":"2026-04-05T13:40:18.991200","MEAN_MOTION":1.00336478,"ECCENTRICITY":0.0020741,"INCLINATION":9.1063,"RA_OF_ASC_NODE":314.2148,"ARG_OF_PERICENTER":212.4593,"MEAN_ANOMALY":334.3482,"EPHEMERIS_TYPE":0,"CLASSIFICATION_TYPE":"U","NORAD_CAT_ID":15181,"ELEMENT_SET_NO":999,"REV_AT_EPOCH":12228,"BSTAR":0,"MEAN_MOTION_DOT":-3.37e-6,"MEAN_MOTION_DDOT":0},{"OBJECT_NAME":"AMPTE/CCE","OBJECT_ID":"1984-088A","EPOCH":"2026-04-05T20:05:06.730944","MEAN_MOTION":1.53321109,"ECCENTRICITY":0.7640352,"INCLINATION":3.5403,"RA_OF_ASC_NODE":268.5852,"ARG_OF_PERICENTER":75.1619,"MEAN_ANOMALY":6.036,"EPHEMERIS_TYPE":0,"CLASSIFICATION_TYPE":"U","NORAD_CAT_ID":15199,"ELEMENT_SET_NO":999,"REV_AT_EPOCH":19932,"BSTAR":0,"MEAN_MOTION_DOT":-2.32e-6,"MEAN_MOTION_DDOT":0},{"OBJECT_NAME":"DELTA 1 R/B(2)","OBJECT_ID":"1984-088F","EPOCH":"2026-04-01T22:23:38.030784","MEAN_MOTION":1.58896026,"ECCENTRICITY":0.78048058,"INCLINATION":26.4644,"RA_OF_ASC_NODE":130.7267,"ARG_OF_PERICENTER":265.7869,"MEAN_ANOMALY":11.7443,"EPHEMERIS_TYPE":0,"CLASSIFICATION_TYPE":"U","NORAD_CAT_ID":15206,"ELEMENT_SET_NO":999,"REV_AT_EPOCH":23726,"BSTAR":0.0048346062,"MEAN_MOTION_DOT":6.28e-6,"MEAN_MOTION_DDOT":0},{"OBJECT_NAME":"USA 4","OBJECT_ID":"1984-091A","EPOCH":"2026-04-04T08:37:52.715424","MEAN_MOTION":2.00760699,"ECCENTRICITY":0.65466735,"INCLINATION":63.0611,"RA_OF_ASC_NODE":92.6452,"ARG_OF_PERICENTER":282.8149,"MEAN_ANOMALY":15.9254,"EPHEMERIS_TYPE":0,"CLASSIFICATION_TYPE":"U","NORAD_CAT_ID":15226,"ELEMENT_SET_NO":999,"REV_AT_EPOCH":4923,"BSTAR":0,"MEAN_MOTION_DOT":-6.67e-6,"MEAN_MOTION_DDOT":0},{"OBJECT_NAME":"TELSTAR 302","OBJECT_ID":"1984-093D","EPOCH":"2026-04-05T14:58:30.757440","MEAN_MOTION":0.99777754,"ECCENTRICITY":7.7e-5,"INCLINATION":14.1714,"RA_OF_ASC_NODE":345.9038,"ARG_OF_PERICENTER":171.1333,"MEAN_ANOMALY":10.5661,"EPHEMERIS_TYPE":0,"CLASSIFICATION_TYPE":"U","NORAD_CAT_ID":15237,"ELEMENT_SET_NO":999,"REV_AT_EPOCH":4571,"BSTAR":0,"MEAN_MOTION_DOT":-2.91e-6,"MEAN_MOTION_DDOT":0},{"OBJECT_NAME":"COSMOS 1596","OBJECT_ID":"1984-096A","EPOCH":"2026-04-03T06:21:40.426272","MEAN_MOTION":2.00767608,"ECCENTRICITY":0.66934334,"INCLINATION":65.8914,"RA_OF_ASC_NODE":138.0118,"ARG_OF_PERICENTER":25.5149,"MEAN_ANOMALY":356.3624,"EPHEMERIS_TYPE":0,"CLASSIFICATION_TYPE":"U","NORAD_CAT_ID":15267,"ELEMENT_SET_NO":999,"REV_AT_EPOCH":30450,"BSTAR":0,"MEAN_MOTION_DOT":9.51e-6,"MEAN_MOTION_DDOT":0},{"OBJECT_NAME":"GALAXY 3 (G-3)","OBJECT_ID":"1984-101A","EPOCH":"2026-04-05T10:57:51.782976","MEAN_MOTION":0.99848564,"ECCENTRICITY":0.00069017,"INCLINATION":14.1396,"RA_OF_ASC_NODE":345.6477,"ARG_OF_PERICENTER":25.667,"MEAN_ANOMALY":142.8297,"EPHEMERIS_TYPE":0,"CLASSIFICATION_TYPE":"U","NORAD_CAT_ID":15308,"ELEMENT_SET_NO":999,"REV_AT_EPOCH":4575,"BSTAR":0,"MEAN_MOTION_DOT":-2.46e-6,"MEAN_MOTION_DDOT":0},{"OBJECT_NAME":"SL-6 R/B(2)","OBJECT_ID":"1984-107D","EPOCH":"2026-04-05T01:09:28.551168","MEAN_MOTION":2.03368333,"ECCENTRICITY":0.72686585,"INCLINATION":62.9912,"RA_OF_ASC_NODE":122.9984,"ARG_OF_PERICENTER":43.4849,"MEAN_ANOMALY":355.0184,"EPHEMERIS_TYPE":0,"CLASSIFICATION_TYPE":"U","NORAD_CAT_ID":15355,"ELEMENT_SET_NO":999,"REV_AT_EPOCH":30821,"BSTAR":0,"MEAN_MOTION_DOT":-1.118e-5,"MEAN_MOTION_DDOT":0},{"OBJECT_NAME":"ZHONGXING-5R","OBJECT_ID":"1984-114A","EPOCH":"2026-04-05T00:40:25.972032","MEAN_MOTION":0.99765147,"ECCENTRICITY":0.00094376,"INCLINATION":14.6796,"RA_OF_ASC_NODE":352.5776,"ARG_OF_PERICENTER":76.174,"MEAN_ANOMALY":115.7999,"EPHEMERIS_TYPE":0,"CLASSIFICATION_TYPE":"U","NORAD_CAT_ID":15385,"ELEMENT_SET_NO":999,"REV_AT_EPOCH":12624,"BSTAR":0,"MEAN_MOTION_DOT":-2.32e-6,"MEAN_MOTION_DDOT":0},{"OBJECT_NAME":"ATLAS AGENA R/B(2)","OBJECT_ID":"1977-038C","EPOCH":"2026-04-05T05:23:13.620480","MEAN_MOTION":1.02338083,"ECCENTRICITY":0.1450048,"INCLINATION":6.3918,"RA_OF_ASC_NODE":330.2745,"ARG_OF_PERICENTER":179.1762,"MEAN_ANOMALY":180.8122,"EPHEMERIS_TYPE":0,"CLASSIFICATION_TYPE":"U","NORAD_CAT_ID":15422,"ELEMENT_SET_NO":999,"REV_AT_EPOCH":2549,"BSTAR":0,"MEAN_MOTION_DOT":-2.46e-6,"MEAN_MOTION_DDOT":0},{"OBJECT_NAME":"MOLNIYA 1-63","OBJECT_ID":"1984-124A","EPOCH":"2026-03-28T15:38:35.386944","MEAN_MOTION":2.00465046,"ECCENTRICITY":0.7286659,"INCLINATION":63.116,"RA_OF_ASC_NODE":1.5556,"ARG_OF_PERICENTER":257.4882,"MEAN_ANOMALY":339.2736,"EPHEMERIS_TYPE":0,"CLASSIFICATION_TYPE":"U","NORAD_CAT_ID":15429,"ELEMENT_SET_NO":999,"REV_AT_EPOCH":30244,"BSTAR":0,"MEAN_MOTION_DOT":-1.429e-5,"MEAN_MOTION_DDOT":0},{"OBJECT_NAME":"SL-6 R/B(2)","OBJECT_ID":"1984-124H","EPOCH":"2026-03-30T18:25:03.838656","MEAN_MOTION":1.96360758,"ECCENTRICITY":0.7466162,"INCLINATION":62.9342,"RA_OF_ASC_NODE":7.1459,"ARG_OF_PERICENTER":257.1113,"MEAN_ANOMALY":17.861,"EPHEMERIS_TYPE":0,"CLASSIFICATION_TYPE":"U","NORAD_CAT_ID":15439,"ELEMENT_SET_NO":999,"REV_AT_EPOCH":25318,"BSTAR":0.00025391,"MEAN_MOTION_DOT":4.91e-6,"MEAN_MOTION_DDOT":0},{"OBJECT_NAME":"GORIZONT 11","OBJECT_ID":"1985-007A","EPOCH":"2026-04-04T22:56:58.394688","MEAN_MOTION":1.00248785,"ECCENTRICITY":0.00029184,"INCLINATION":9.2906,"RA_OF_ASC_NODE":316.0145,"ARG_OF_PERICENTER":293.6812,"MEAN_ANOMALY":265.8131,"EPHEMERIS_TYPE":0,"CLASSIFICATION_TYPE":"U","NORAD_CAT_ID":15484,"ELEMENT_SET_NO":999,"REV_AT_EPOCH":15189,"BSTAR":0,"MEAN_MOTION_DOT":-1.89e-6,"MEAN_MOTION_DDOT":0},{"OBJECT_NAME":"USA 8","OBJECT_ID":"1985-010B","EPOCH":"2026-04-04T22:58:38.490816","MEAN_MOTION":0.99820113,"ECCENTRICITY":0.01350825,"INCLINATION":12.7915,"RA_OF_ASC_NODE":314.2326,"ARG_OF_PERICENTER":52.4412,"MEAN_ANOMALY":142.4749,"EPHEMERIS_TYPE":0,"CLASSIFICATION_TYPE":"U","NORAD_CAT_ID":15543,"ELEMENT_SET_NO":999,"REV_AT_EPOCH":709,"BSTAR":0,"MEAN_MOTION_DOT":-3.22e-6,"MEAN_MOTION_DDOT":0},{"OBJECT_NAME":"IUS R/B(2)","OBJECT_ID":"1985-010D","EPOCH":"2026-04-05T03:37:28.490016","MEAN_MOTION":1.00823057,"ECCENTRICITY":0.0029014,"INCLINATION":12.8977,"RA_OF_ASC_NODE":313.0479,"ARG_OF_PERICENTER":303.9466,"MEAN_ANOMALY":55.7006,"EPHEMERIS_TYPE":0,"CLASSIFICATION_TYPE":"U","NORAD_CAT_ID":15545,"ELEMENT_SET_NO":999,"REV_AT_EPOCH":2618,"BSTAR":0,"MEAN_MOTION_DOT":-1.25e-6,"MEAN_MOTION_DDOT":0}]
